[{"OBJECT_NAME":"STARLINK-30264","OBJECT_ID":"2023-115P","EPOCH":"2026-03-09T09:47:23.648640","MEAN_MOTION":15.27567754,"ECCENTRICITY":7.537e-5,"INCLINATION":42.996,"RA_OF_ASC_NODE":210.4823,"ARG_OF_PERICENTER":146.8642,"MEAN_ANOMALY":213.2257,"EPHEMERIS_TYPE":0,"CLASSIFICATION_TYPE":"U","NORAD_CAT_ID":57534,"ELEMENT_SET_NO":999,"REV_AT_EPOCH":14531,"BSTAR":7.17316e-6,"MEAN_MOTION_DOT":-6.4e-7,"MEAN_MOTION_DDOT":0},{"OBJECT_NAME":"GEOSCAN 4 (RS92S4)","OBJECT_ID":"2025-155S","EPOCH":"2026-03-09T21:50:07.724832","MEAN_MOTION":15.30369837,"ECCENTRICITY":0.00070968,"INCLINATION":97.4465,"RA_OF_ASC_NODE":37.7626,"ARG_OF_PERICENTER":154.7045,"MEAN_ANOMALY":205.4544,"EPHEMERIS_TYPE":0,"CLASSIFICATION_TYPE":"U","NORAD_CAT_ID":64892,"ELEMENT_SET_NO":999,"REV_AT_EPOCH":6562,"BSTAR":0.00068609503,"MEAN_MOTION_DOT":0.00020121,"MEAN_MOTION_DDOT":0}]
